OBJECT_NAME,OBJECT_ID,EPOCH,MEAN_MOTION,ECCENTRICITY,INCLINATION,RA_OF_ASC_NODE,ARG_OF_PERICENTER,MEAN_ANOMALY,EPHEMERIS_TYPE,CLASSIFICATION_TYPE,NORAD_CAT_ID,ELEMENT_SET_NO,REV_AT_EPOCH,BSTAR,MEAN_MOTION_DOT,MEAN_MOTION_DDOT
ONEWEB-0277,2021-060AE,2023-11-28T05:58:46.119360,13.16594045,.0001106,87.9092,54.2905,111.2934,248.8315,0,U,48995,999,11822,.39773E-3,.165E-5,0
ONEWEB-0278,2021-060AF,2023-11-28T07:33:00.707328,13.16593401,.0002058,87.9094,54.2343,107.5161,252.6195,0,U,48996,999,11838,.47017E-3,.193E-5,0
ONEWEB-0279,2021-060AG,2023-11-28T07:45:11.513952,13.16595878,.0001681,87.9094,54.2307,101.7086,258.4233,0,U,48997,999,11830,.22813E-3,.1E-5,0
ONEWEB-0280,2021-060AH,2023-11-27T17:30:57.469248,13.16595116,.0001173,87.9093,54.3495,106.3957,253.7303,0,U,48998,999,11686,-.18396E-2,-.69E-5,0
ONEWEB-0281,2021-060AJ,2023-11-27T17:40:05.316960,13.16593646,.0001724,87.9090,54.3511,93.4811,266.6517,0,U,48999,999,11693,-.16379E-4,.7E-7,0
ONEWEB-0282,2021-060AK,2023-11-27T18:22:38.779104,13.16592725,.0001579,87.9094,54.3619,118.7840,241.3449,0,U,49000,999,11691,.86722E-4,.46E-6,0
ONEWEB-0283,2021-060AL,2023-11-27T18:07:26.569632,13.16593436,.0001338,87.9084,54.3769,107.7617,252.3660,0,U,49001,999,11692,.61723E-4,.36E-6,0
ONEWEB-0284,2021-060AM,2023-11-27T17:58:19.566048,13.16595365,.0002213,87.9077,54.3732,107.6185,252.5187,0,U,49002,999,11690,-.12747E-2,-.474E-5,0
JILIN-1 KUANFU-01B,2021-061A,2023-11-28T11:25:47.682912,15.14249462,.0013228,97.6188,42.3119,85.6851,274.5892,0,U,49003,999,13262,.43932E-3,.7984E-4,0
JILIN-1 GAOFEN 3D01,2021-061B,2023-11-28T11:55:29.100576,15.21857957,.0011267,97.4274,34.2239,128.3554,231.8696,0,U,49004,999,13287,.79929E-3,.18164E-3,0
JILIN-1 GAOFEN 3D02,2021-061C,2023-11-28T10:35:56.765472,15.18223774,.0005683,97.4274,32.4156,168.9889,191.1471,0,U,49005,999,13275,.74071E-3,.15115E-3,0
JILIN-1 GAOFEN 3D03,2021-061D,2023-11-28T10:57:57.022272,15.18316712,.0009749,97.4260,32.4185,166.6385,193.5110,0,U,49006,999,13275,.76914E-3,.15754E-3,0
XINGSHIDAI 10,2021-061E,2023-11-28T10:48:56.268000,15.18207389,.00117,97.4267,32.3395,152.7299,207.4551,0,U,49007,999,13274,.76133E-3,.15552E-3,0
FENGYUN 3E,2021-062A,2023-11-28T12:08:36.217536,14.19713322,.000061,98.7279,331.5594,221.6337,138.4793,0,U,49008,999,12437,.56486E-4,.76E-6,0
TIANLIAN 1-05,2021-063A,2023-11-27T21:19:54.736608,1.00271237,.0003963,0.8241,279.2911,318.7993,165.2101,0,U,49011,999,873,0,.118E-5,0
GUNSMOKE-J 2,2021-013D,2023-11-28T01:18:05.565312,15.81713373,.0004939,51.6045,329.9732,56.7251,303.4224,0,U,49014,999,13529,.16962E-2,.36315E-2,0
DHABISAT (MYSAT-2),2021-013F,2023-11-27T00:57:36.418176,15.72579625,.0004775,51.5783,342.1018,36.3531,323.7790,0,U,49016,999,13514,.12373E-2,.172391E-2,0
IT-SPINS,2021-013G,2023-11-28T07:14:59.612640,15.62349034,.0001557,51.5855,344.7141,45.1932,314.9187,0,U,49017,999,13516,.13857E-2,.126504E-2,0
NINGXIA-1 6,2021-064A,2023-11-28T11:00:57.197376,14.08202598,.0007458,44.9999,115.3938,95.8040,264.3647,0,U,49018,999,12288,.1121E-3,.61E-6,0
NINGXIA-1 7,2021-064B,2023-11-28T10:38:22.450560,14.08194312,.0006605,45.0026,115.4852,105.5342,254.6224,0,U,49019,999,12289,.10671E-3,.51E-6,0
NINGXIA-1 8,2021-064C,2023-11-28T12:00:48.292416,14.08219316,.0007557,44.9945,114.5221,110.6358,249.5289,0,U,49020,999,12290,.10656E-3,.51E-6,0
NINGXIA-1 9,2021-064D,2023-11-28T11:44:24.311328,14.08167781,.0008112,45.0023,114.9916,120.2469,239.9171,0,U,49021,999,12290,.99934E-4,.4E-6,0
NINGXIA-1 10,2021-064E,2023-11-28T11:19:23.711808,14.08215426,.0007873,44.9996,114.6974,127.2820,232.8735,0,U,49022,999,12290,.84526E-4,.13E-6,0
YAOGAN-30 AD,2021-065A,2023-11-27T22:44:12.656544,14.93499930,.0006922,34.9917,158.1165,328.5998,31.4293,0,U,49026,999,12872,.38655E-3,.4123E-4,0
TIANQI-15,2021-065B,2023-11-28T12:02:21.454080,14.96014108,.0006402,34.9997,141.5642,159.6121,200.4841,0,U,49027,999,12896,.61968E-3,.707E-4,0
YAOGAN-30 AE,2021-065C,2023-11-28T12:39:50.019264,14.93502362,.0001155,34.9917,154.3345,302.9154,57.1440,0,U,49028,999,12879,.38749E-3,.4132E-4,0
YAOGAN-30 AF,2021-065D,2023-11-28T12:06:55.554624,14.93503566,.0004235,34.9928,154.2257,67.4779,292.6374,0,U,49029,999,12882,.39435E-3,.4206E-4,0
ISS (NAUKA),2021-066A,2023-11-27T10:44:20.347872,15.49829499,.0000994,51.6403,239.9148,337.9095,22.1851,0,U,49044,999,42710,.3773E-3,.21005E-3,0
TIANHUI 1-04,2021-067A,2023-11-28T11:24:09.857376,15.23506791,.0001958,97.3868,45.9547,70.4342,289.7106,0,U,49049,999,12974,.4969E-3,.118E-3,0
MONOLITH,2021-068A,2023-11-28T12:16:04.180800,14.93184655,.0005621,37.0218,26.3510,207.1867,152.8580,0,U,49052,999,12716,.82297E-3,.8687E-4,0
STAR ONE D2,2021-069A,2023-11-27T09:12:31.570272,1.00270237,.0002488,0.0034,331.9473,246.8749,275.2595,0,U,49055,999,858,0,-.255E-5,0
EUTELSAT QUANTUM,2021-069B,2023-11-28T11:14:07.749600,1.00273290,.0003048,0.0257,25.9392,234.9977,22.4240,0,U,49056,999,857,0,.135E-5,0
KL-BETA A,2021-070A,2023-11-28T11:50:18.368160,13.96472689,.0008371,88.9900,320.9813,126.9064,233.2881,0,U,49059,999,11807,.11312E-3,.17E-5,0
KL-BETA B,2021-070B,2023-11-28T11:48:40.961664,13.96471626,.0006474,88.9897,320.9569,130.0797,230.0948,0,U,49060,999,11808,.11158E-3,.168E-5,0
CHINASAT 2E (ZX 2E),2021-071A,2023-11-28T11:57:00.324288,1.00272568,.0001305,0.0188,278.7747,304.9897,120.7084,0,U,49062,999,870,0,-.283E-5,0
BRO-4,2021-073A,2023-11-28T10:50:41.322624,15.22384931,.0020751,97.4721,43.5418,251.3351,108.5633,0,U,49066,999,12597,.93458E-3,.21681E-3,0
RADCUBE,2021-073B,2023-11-27T18:01:50.674944,15.29584655,.0016563,97.4675,44.2976,257.1037,102.8354,0,U,49067,999,12595,.13673E-2,.39446E-3,0
SUNSTORM,2021-073C,2023-11-28T04:50:41.244864,15.28430382,.0016639,97.4703,44.3010,257.3010,102.6369,0,U,49068,999,12598,.15358E-2,.42796E-3,0
LEDSAT,2021-073D,2023-11-28T03:51:58.469760,15.17982122,.0020834,97.4654,40.4888,271.5626,88.3221,0,U,49069,999,12574,.797E-3,.16241E-3,0
PLEIADES NEO 4,2021-073E,2023-11-28T11:22:26.259456,14.81666135,.0001174,97.8963,44.6071,91.3459,268.7888,0,U,49070,999,12340,.35139E-4,.224E-5,0
TIANHUI 2-02A,2021-074A,2023-11-28T11:16:36.333408,15.16792718,.0001721,97.4649,332.9888,103.4754,256.6671,0,U,49071,999,12605,.19941E-3,.385E-4,0
TIANHUI 2-02B,2021-074B,2023-11-28T11:16:36.386976,15.16792886,.0001939,97.4647,332.9845,88.1950,271.9505,0,U,49072,999,12604,.20317E-3,.3924E-4,0
ONEWEB-0285,2021-075A,2023-11-28T12:28:02.669376,13.12650897,.0001422,87.9031,175.9636,80.3315,279.7974,0,U,49075,999,11398,-.56467E-2,-.2024E-4,0
ONEWEB-0286,2021-075B,2023-11-28T11:46:25.609152,13.12439281,.0002121,87.9006,175.9784,69.3202,290.8153,0,U,49076,999,11333,.10211E-2,.38E-5,0
ONEWEB-0287,2021-075C,2023-11-28T12:10:58.679904,13.17674103,.0002045,87.9218,191.0734,85.2198,274.9167,0,U,49077,999,11190,-.13571E-1,-.5255E-4,0
ONEWEB-0288,2021-075D,2023-11-27T15:15:58.089600,13.12446662,.0001713,87.9007,176.1518,89.6864,270.4461,0,U,49078,999,11286,.13745E-2,.507E-5,0
ONEWEB-0289,2021-075E,2023-11-28T03:43:43.848768,13.17651864,.0001439,87.9231,191.1623,80.7460,279.3834,0,U,49079,999,11243,.12338E-4,.18E-6,0
ONEWEB-0290,2021-075F,2023-11-28T01:30:04.904064,13.17647879,.0001611,87.9207,191.1524,94.7201,265.4115,0,U,49080,999,11184,.23542E-3,.104E-5,0
ONEWEB-0291,2021-075G,2023-11-27T15:59:02.748192,13.17648155,.0001775,87.9217,191.2571,90.9373,269.1961,0,U,49081,999,11080,.38101E-4,.28E-6,0
ONEWEB-0293,2021-075H,2023-11-27T16:35:29.912352,13.17649993,.0001585,87.9233,191.2523,92.3506,267.7807,0,U,49082,999,11083,.12154E-2,.485E-5,0
ONEWEB-0294,2021-075J,2023-11-27T15:25:06.525696,13.12435463,.000184,87.9005,176.1489,106.3835,253.7496,0,U,49083,999,11225,.30137E-2,.1097E-4,0
ONEWEB-0295,2021-075K,2023-11-28T03:34:38.299296,13.17559845,.000256,87.9228,191.1360,99.7433,260.3988,0,U,49084,999,11181,.4564E-1,.17745E-3,0
ONEWEB-0296,2021-075L,2023-11-28T01:58:36.984864,13.12453477,.0002428,87.9009,176.0604,91.2473,268.8934,0,U,49085,999,11330,-.37929E-2,-.1352E-4,0
ONEWEB-0297,2021-075M,2023-11-27T15:45:42.718752,13.12440682,.0001513,87.9018,176.1357,79.9843,280.1456,0,U,49086,999,11286,.20253E-2,.741E-5,0
ONEWEB-0298,2021-075N,2023-11-28T03:37:39.016128,13.17618934,.0002198,87.9233,191.1546,81.2409,278.8971,0,U,49087,999,11187,.17425E-1,.678E-4,0
ONEWEB-0299,2021-075P,2023-11-28T03:40:42.184992,13.17659941,.0002328,87.9218,191.1373,63.8219,296.3152,0,U,49088,999,11183,-.44647E-2,-.1721E-4,0
ONEWEB-0300,2021-075Q,2023-11-27T15:31:56.916192,13.12439323,.0001572,87.9009,176.1462,75.9356,284.1948,0,U,49089,999,11288,.14259E-2,.526E-5,0
ONEWEB-0301,2021-075R,2023-11-28T02:07:47.163648,13.12451220,.000131,87.9009,176.0606,74.9243,285.2030,0,U,49090,999,11329,.71987E-3,.272E-5,0
ONEWEB-0302,2021-075S,2023-11-27T14:50:44.187072,13.12443342,.0001801,87.9009,176.1502,90.1721,269.9614,0,U,49091,999,11322,-.3962E-3,-.13E-5,0
ONEWEB-0304,2021-075T,2023-11-27T16:11:12.032448,13.17649942,.0001736,87.9217,191.2428,79.8280,280.3048,0,U,49092,999,11077,.69419E-4,.4E-6,0
ONEWEB-0305,2021-075U,2023-11-28T02:52:06.745728,13.17648454,.0002108,87.9218,191.1440,81.3634,278.7736,0,U,49093,999,11183,.28857E-3,.125E-5,0
ONEWEB-0308,2021-075V,2023-11-27T14:41:37.478112,13.12451319,.0001449,87.9007,176.1529,81.3955,278.7337,0,U,49094,999,11223,-.78197E-3,-.269E-5,0
ONEWEB-0309,2021-075W,2023-11-28T03:01:11.800992,13.17649928,.0001996,87.9215,191.1438,109.8760,250.2587,0,U,49095,999,11182,-.21566E-3,-.71E-6,0
ONEWEB-0310,2021-075X,2023-11-27T15:02:14.321760,13.12445039,.0001507,87.9019,176.1396,95.5055,264.6245,0,U,49096,999,11286,.6763E-3,.256E-5,0
ONEWEB-0311,2021-075Y,2023-11-28T12:17:04.189920,13.17649105,.0002048,87.9218,191.0672,79.1482,280.9879,0,U,49097,999,11193,.39369E-3,.166E-5,0
ONEWEB-0312,2021-075Z,2023-11-28T01:39:12.185856,13.17649552,.0001992,87.9233,191.1824,91.2913,268.8446,0,U,49098,999,11183,.24876E-3,.109E-5,0
ONEWEB-0313,2021-075AA,2023-11-28T02:58:10.585632,13.17644735,.0002097,87.9217,191.1790,86.8825,273.2546,0,U,49099,999,11185,.1952E-2,.771E-5,0
